{"type": "FeatureCollection", "features": [ {"type": "Feature", "properties": {"norad_id": 37867, "name": "COSMOS 2476 (744)", "group": "gnss", "lat": -30.816821249878757, "lon": 62.91202873813817, "alt_km": 19134.929286389422, "timestamp": "2025-12-20T14:38:02.212762+00:00", "meta": {"OBJECT_NAME": "COSMOS 2476 (744)", "OBJECT_ID": "2011-064A", "EPOCH": "2025-12-19T06:05:26.552256", "MEAN_MOTION": 2.13103916, "ECCENTRICITY": 0.0024321, "INCLINATION": 65.1662, "RA_OF_ASC_NODE": 78.9509, "ARG_OF_PERICENTER": 234.6548, "MEAN_ANOMALY": 130.4776, "EPHEMERIS_TYPE": 0, "CLASSIFICATION_TYPE": "U", "NORAD_CAT_ID": 37867, "ELEMENT_SET_NO": 999, "REV_AT_EPOCH": 10993, "BSTAR": 0, "MEAN_MOTION_DOT": -3e-07, "MEAN_MOTION_DDOT": 0}, "tle": {"line1": "1 37867U 11064A   25353.25377954 -.00000030  00000+0  00000+0 0  9995", "line2": "2 37867  65.1662  78.9509 0024321 234.6548 130.4776  2.13103916109937"}}, "geometry": {"type": "Point", "coordinates": [62.91202873813817, -30.816821249878757]}}, {"type": "Feature", "properties": {"norad_id": 37868, "name": "COSMOS 2477 (745)", "group": "gnss", "lat": 30.44146636430568, "lon": -116.76213840433185, "alt_km": 19125.0816378331, "timestamp": "2025-12-20T14:38:02.212775+00:00", "meta": {"OBJECT_NAME": "COSMOS 2477 (745)", "OBJECT_ID": "2011-064B", "EPOCH": "2025-12-19T13:37:36.499584", "MEAN_MOTION": 2.13102956, "ECCENTRICITY": 0.0021226, "INCLINATION": 65.1727, "RA_OF_ASC_NODE": 79.0178, "ARG_OF_PERICENTER": 234.8822, "MEAN_ANOMALY": 192.052, "EPHEMERIS_TYPE": 0, "CLASSIFICATION_TYPE": "U", "NORAD_CAT_ID": 37868, "ELEMENT_SET_NO": 999, "REV_AT_EPOCH": 10993, "BSTAR": 0, "MEAN_MOTION_DOT": -2.7e-07, "MEAN_MOTION_DDOT": 0}, "tle": {"line1": "1 37868U 11064B   25353.56778356 -.00000027  00000+0  00000+0 0  9997", "line2": "2 37868  65.1727  79.0178 0021226 234.8822 192.0520  2.13102956109936"}}, "geometry": {"type": "Point", "coordinates": [-116.76213840433185, 30.44146636430568]}}, {"type": "Feature", "properties": {"norad_id": 37869, "name": "COSMOS 2475 (743)", "group": "gnss", "lat": 62.6041036868968, "lon": -164.02974933672547, "alt_km": 19179.51763101691, "timestamp": "2025-12-20T14:38:02.212787+00:00", "meta": {"OBJECT_NAME": "COSMOS 2475 (743)", "OBJECT_ID": "2011-064C", "EPOCH": "2025-12-19T14:11:24.597888", "MEAN_MOTION": 2.13101629, "ECCENTRICITY": 0.0026449, "INCLINATION": 65.1796, "RA_OF_ASC_NODE": 79.0372, "ARG_OF_PERICENTER": 248.8375, "MEAN_ANOMALY": 152.0175, "EPHEMERIS_TYPE": 0, "CLASSIFICATION_TYPE": "U", "NORAD_CAT_ID": 37869, "ELEMENT_SET_NO": 999, "REV_AT_EPOCH": 10994, "BSTAR": 0, "MEAN_MOTION_DOT": -2.6e-07, "MEAN_MOTION_DDOT": 0}, "tle": {"line1": "1 37869U 11064C   25353.59125692 -.00000026  00000+0  00000+0 0  9999", "line2": "2 37869  65.1796  79.0372 0026449 248.8375 152.0175  2.13101629109948"}}, "geometry": {"type": "Point", "coordinates": [-164.02974933672547, 62.6041036868968]}}, {"type": "Feature", "properties": {"norad_id": 37948, "name": "BEIDOU-2 IGSO-5 (C10)", "group": "gnss", "lat": 36.25388337325979, "lon": 52.51899825341901, "alt_km": 35811.074629419236, "timestamp": "2025-12-20T14:38:02.212800+00:00", "meta": {"OBJECT_NAME": "BEIDOU-2 IGSO-5 (C10)", "OBJECT_ID": "2011-073A", "EPOCH": "2025-12-19T18:17:17.237184", "MEAN_MOTION": 1.00289893, "ECCENTRICITY": 0.01098798, "INCLINATION": 48.0071, "RA_OF_ASC_NODE": 273.7726, "ARG_OF_PERICENTER": 222.325, "MEAN_ANOMALY": 320.2143, "EPHEMERIS_TYPE": 0, "CLASSIFICATION_TYPE": "U", "NORAD_CAT_ID": 37948, "ELEMENT_SET_NO": 999, "REV_AT_EPOCH": 5133, "BSTAR": 0, "MEAN_MOTION_DOT": -1.59e-06, "MEAN_MOTION_DDOT": 0}, "tle": {"line1": "1 37948U 11073A   25353.76200506 -.00000159  00000+0  00000+0 0  9991", "line2": "2 37948  48.0071 273.7726 0109879 222.3250 320.2143  1.00289893 51334"}}, "geometry": {"type": "Point", "coordinates": [52.51899825341901, 36.25388337325979]}}, {"type": "Feature", "properties": {"norad_id": 37951, "name": "LUCH 5A (SDCM/PRN 140)", "group": "gnss", "lat": 5.29537503804091, "lon": 115.68810135012987, "alt_km": 35804.82063042809, "timestamp": "2025-12-20T14:38:02.212811+00:00", "meta": {"OBJECT_NAME": "LUCH 5A (SDCM/PRN 140)", "OBJECT_ID": "2011-074B", "EPOCH": "2025-12-19T12:20:45.341088", "MEAN_MOTION": 1.0026908, "ECCENTRICITY": 0.0005087, "INCLINATION": 8.2961, "RA_OF_ASC_NODE": 76.4843, "ARG_OF_PERICENTER": 189.4736, "MEAN_ANOMALY": 174.6688, "EPHEMERIS_TYPE": 0, "CLASSIFICATION_TYPE": "U", "NORAD_CAT_ID": 37951, "ELEMENT_SET_NO": 999, "REV_AT_EPOCH": 5125, "BSTAR": 0, "MEAN_MOTION_DOT": -3.2e-07, "MEAN_MOTION_DDOT": 0}, "tle": {"line1": "1 37951U 11074B   25353.51441367 -.00000032  00000+0  00000+0 0  9991", "line2": "2 37951   8.2961  76.4843 0005087 189.4736 174.6688  1.00269080 51252"}}, "geometry": {"type": "Point", "coordinates": [115.68810135012987, 5.29537503804091]}}, {"type": "Feature", "properties": {"norad_id": 38091, "name": "BEIDOU-2 G5 (C05)", "group": "gnss", "lat": -2.7804723878718067, "lon": 7.887049778773737, "alt_km": 35764.989021154564, "timestamp": "2025-12-20T14:38:02.212824+00:00", "meta": {"OBJECT_NAME": "BEIDOU-2 G5 (C05)", "OBJECT_ID": "2012-008A", "EPOCH": "2025-12-19T16:03:31.750272", "MEAN_MOTION": 1.00268606, "ECCENTRICITY": 0.0012969, "INCLINATION": 3.1258, "RA_OF_ASC_NODE": 70.6861, "ARG_OF_PERICENTER": 231.3522, "MEAN_ANOMALY": 86.1393, "EPHEMERIS_TYPE": 0, "CLASSIFICATION_TYPE": "U", "NORAD_CAT_ID": 38091, "ELEMENT_SET_NO": 999, "REV_AT_EPOCH": 5056, "BSTAR": 0, "MEAN_MOTION_DOT": 7.9e-07, "MEAN_MOTION_DDOT": 0}, "tle": {"line1": "1 38091U 12008A   25353.66911748  .00000079  00000+0  00000+0 0  9996", "line2": "2 38091   3.1258  70.6861 0012969 231.3522  86.1393  1.00268606 50560"}}, "geometry": {"type": "Point", "coordinates": [7.887049778773737, -2.7804723878718067]}}, {"type": "Feature", "properties": {"norad_id": 38250, "name": "BEIDOU-2 M3 (C11)", "group": "gnss", "lat": 22.486628076768255, "lon": 114.60579239941019, "alt_km": 21561.753157408217, "timestamp": "2025-12-20T14:38:02.212835+00:00", "meta": {"OBJECT_NAME": "BEIDOU-2 M3 (C11)", "OBJECT_ID": "2012-018A", "EPOCH": "2025-12-19T07:23:03.381792", "MEAN_MOTION": 1.86230015, "ECCENTRICITY": 0.0024195, "INCLINATION": 55.9145, "RA_OF_ASC_NODE": 310.9364, "ARG_OF_PERICENTER": 274.9131, "MEAN_ANOMALY": 84.7979, "EPHEMERIS_TYPE": 0, "CLASSIFICATION_TYPE": "U", "NORAD_CAT_ID": 38250, "ELEMENT_SET_NO": 999, "REV_AT_EPOCH": 9259, "BSTAR": 0, "MEAN_MOTION_DOT": -7.8e-07, "MEAN_MOTION_DDOT": 0}, "tle": {"line1": "1 38250U 12018A   25353.30767803 -.00000078  00000+0  00000+0 0  9996", "line2": "2 38250  55.9145 310.9364 0024195 274.9131  84.7979  1.86230015 92598"}}, "geometry": {"type": "Point", "coordinates": [114.60579239941019, 22.486628076768255]}}, {"type": "Feature", "properties": {"norad_id": 38251, "name": "BEIDOU-2 M4 (C12)", "group": "gnss", "lat": -14.98170000936373, "lon": 140.5669624154333, "alt_km": 21523.150575197797, "timestamp": "2025-12-20T14:38:02.212847+00:00", "meta": {"OBJECT_NAME": "BEIDOU-2 M4 (C12)", "OBJECT_ID": "2012-018B", "EPOCH": "2025-12-19T05:45:13.599936", "MEAN_MOTION": 1.86229684, "ECCENTRICITY": 0.00153935, "INCLINATION": 55.8157, "RA_OF_ASC_NODE": 310.167, "ARG_OF_PERICENTER": 278.4783, "MEAN_ANOMALY": 81.3347, "EPHEMERIS_TYPE": 0, "CLASSIFICATION_TYPE": "U", "NORAD_CAT_ID": 38251, "ELEMENT_SET_NO": 999, "REV_AT_EPOCH": 9259, "BSTAR": 0, "MEAN_MOTION_DOT": -7.8e-07, "MEAN_MOTION_DDOT": 0}, "tle": {"line1": "1 38251U 12018B   25353.23974074 -.00000078  00000+0  00000+0 0  9999", "line2": "2 38251  55.8157 310.1670 0015393 278.4783  81.3347  1.86229684 92597"}}, "geometry": {"type": "Point", "coordinates": [140.5669624154333, -14.98170000936373]}}, {"type": "Feature", "properties": {"norad_id": 38652, "name": "SES-5 (EGNOS/PRN 136)", "group": "gnss", "lat": -0.007025514936242074, "lon": -46.074739226756385, "alt_km": 35780.87617524035, "timestamp": "2025-12-20T14:38:02.212859+00:00", "meta": {"OBJECT_NAME": "SES-5 (EGNOS/PRN 136)", "OBJECT_ID": "2012-036A", "EPOCH": "2025-12-20T02:43:38.882208", "MEAN_MOTION": 1.00269911, "ECCENTRICITY": 0.00017468, "INCLINATION": 0.0571, "RA_OF_ASC_NODE": 306.3785, "ARG_OF_PERICENTER": 327.9832, "MEAN_ANOMALY": 220.4774, "EPHEMERIS_TYPE": 0, "CLASSIFICATION_TYPE": "U", "NORAD_CAT_ID": 38652, "ELEMENT_SET_NO": 999, "REV_AT_EPOCH": 4266, "BSTAR": 0, "MEAN_MOTION_DOT": 5.8e-07, "MEAN_MOTION_DDOT": 0}, "tle": {"line1": "1 38652U 12036A   25354.11364447  .00000058  00000+0  00000+0 0  9996", "line2": "2 38652   0.0571 306.3785 0001746 327.9832 220.4774  1.00269911 42666"}}, "geometry": {"type": "Point", "coordinates": [-46.074739226756385, -0.007025514936242074]}}, {"type": "Feature", "properties": {"norad_id": 38775, "name": "BEIDOU-2 M6 (C14)", "group": "gnss", "lat": 26.52147302127464, "lon": 88.18156541598998, "alt_km": 21503.970712529175, "timestamp": "2025-12-20T14:38:02.212871+00:00", "meta": {"OBJECT_NAME": "BEIDOU-2 M6 (C14)", "OBJECT_ID": "2012-050B", "EPOCH": "2025-12-19T11:42:06.639840", "MEAN_MOTION": 1.86230927, "ECCENTRICITY": 0.0011333, "INCLINATION": 56.384, "RA_OF_ASC_NODE": 68.8435, "ARG_OF_PERICENTER": 343.6526, "MEAN_ANOMALY": 16.3469, "EPHEMERIS_TYPE": 0, "CLASSIFICATION_TYPE": "U", "NORAD_CAT_ID": 38775, "ELEMENT_SET_NO": 999, "REV_AT_EPOCH": 8996, "BSTAR": 0, "MEAN_MOTION_DOT": -5.2e-07, "MEAN_MOTION_DDOT": 0}, "tle": {"line1": "1 38775U 12050B   25353.48757685 -.00000052  00000+0  00000+0 0  9992", "line2": "2 38775  56.3840  68.8435 0011333 343.6526  16.3469  1.86230927 89961"}}, "geometry": {"type": "Point", "coordinates": [88.18156541598998, 26.52147302127464]}}]}